JILIN-1 03              
1 41914U 17002B   26198.26740869  .00007437  00000+0  17476-3 0  9995
2 41914  97.1950 204.9428 0007768  73.8190 286.3912 15.42263389526497
CARTOSAT-2D             
1 41948U 17008A   26198.25813091  .00001906  00000+0  93485-4 0  9995
2 41948  97.4085 256.9998 0006166 132.7830 227.3925 15.19292245522146
CARTOSAT-2E             
1 42767U 17036C   26198.34180078  .00002022  00000+0  99103-4 0  9991
2 42767  97.4257 257.6445 0003518 179.3577 180.7662 15.19264036502724
IRIDIUM 113             
1 42803U 17039A   26198.24082363  .00000068  00000+0  17198-4 0  9994
2 42803  86.3992 309.6181 0002132  92.6766 267.4674 14.34217620475493
NORSAT 2                
1 42828U 17042D   26198.00340033  .00005014  00000+0  21961-3 0  9998
2 42828  97.4056  10.9845 0008130 310.7606  49.2924 15.22447006492274
TECHNOSAT               
1 42829U 17042E   26197.96807869  .00001484  00000+0  10815-3 0  9991
2 42829  97.4320 354.5006 0017261 357.7865   2.3283 15.05116982491182
FLYING LAPTOP           
1 42831U 17042G   26198.31286390  .00001804  00000+0  14415-3 0  9990
2 42831  97.4816 352.7137 0019597  25.7451 334.4745 15.01320786490970
WNISAT 1R               
1 42835U 17042L   26198.00776467  .00000343  00000+0  30666-4 0  9993
2 42835  97.4819 353.0647 0010630  59.0468 301.1801 15.01860061490984
LEMUR-2-GREENBERG       
1 42837U 17042N   26198.00619138  .00009191  00000+0  29800-3 0  9993
2 42837  97.3832  18.5143 0007259 251.9389 108.1062 15.32187524492955
LEMUR-2-FURIAUS         
1 42840U 17042R   26197.49750942  .00010084  00000+0  33733-3 0  9991
2 42840  97.3778  15.8960 0005913 324.3797  35.7049 15.31157870492699
CORVUS BC2              
1 42846U 17042X   26197.95365840  .00001097  00000+0  78260-4 0  9996
2 42846  97.4092 358.1541 0013278  17.2142 342.9533 15.06460908491543
CORVUS BC1              
1 42847U 17042Y   26197.87858164  .00001449  00000+0  10165-3 0  9994
2 42847  97.4122 358.9151 0011468 354.1091   6.0000 15.06624631491562
VRSS-2                  
1 42954U 17060A   26198.31589432  .00000127  00000+0  22690-4 0  9991
2 42954  97.6493 234.6843 0017264   6.8542 353.2904 14.81238088472911
MOHAMMED VI-A           
1 43005U 17070A   26198.28829446  .00000030  00000+0  11476-4 0  9991
2 43005  97.9549 270.2033 0001211  97.1618 262.9730 14.77102678468427
FENGYUN 3D              
1 43010U 17072A   26198.24003095  .00000037  00000+0  39359-4 0  9996
2 43010  99.0145 173.2087 0001438  10.6602 349.4604 14.19745026449250
NOAA 20 (JPSS-1)        
1 43013U 17073A   26198.31042232  .00000017  00000+0  29162-4 0  9993
2 43013  98.7772 137.5063 0001469 122.2093 237.9226 14.19516701448740
MAKERSAT 0              
1 43016U 17073D   26197.43085670  .00011478  00000+0  30313-3 0  9993
2 43016  97.4577  80.1901 0105507 167.8681 192.5141 15.33035166470949
RADFXSAT (FOX-1B)       
1 43017U 17073E   26198.10306237  .00004326  00000+0  18980-3 0  9994
2 43017  97.4662  64.7083 0148313 224.8184 134.0992 15.13077780469914
JILIN-1 04              
1 43022U 17074A   26198.31023149  .00008077  00000+0  18422-3 0  9990
2 43022  97.4881 308.7449 0005227  94.9517 265.2328 15.43167028478910
JILIN-1 05              
1 43023U 17074B   26198.32117934  .00004512  00000+0  13827-3 0  9992
2 43023  97.4884 304.8947 0006527 118.8101 241.3798 15.34305303478627
JILIN-1 06              
1 43024U 17074C   26198.23225794  .00003387  00000+0  10533-3 0  9997
2 43024  97.4809 301.7735 0008203 128.0718 232.1266 15.34010097478447
IRIDIUM 116             
1 43072U 17083C   26198.28522066  .00000125  00000+0  37483-4 0  9998
2 43072  86.3985 309.4198 0002498  97.5580 262.5899 14.34218141448486
IRIDIUM 130             
1 43073U 17083D   26198.25351109  .00000140  00000+0  42935-4 0  9999
2 43073  86.3994 309.7114 0002306 100.5978 259.5478 14.34218427448422
LKW-2                   
1 43080U 17084A   26198.31273942  .00003610  00000+0  14006-3 0  9995
2 43080  97.1172 236.7054 0003661 115.9806 244.1811 15.26706238476285
SUPERVIEW-1 03          
1 43099U 18002A   26198.25455204  .00012299  00000+0  29599-3 0  9998
2 43099  97.3128 283.0656 0046803  73.9160 286.7232 15.40261784472993
CARTOSAT-2F             
1 43111U 18004A   26198.30858507  .00002692  00000+0  13126-3 0  9999
2 43111  97.4768 257.6467 0002416 129.9496 230.1951 15.19183025471900
LKW-3                   
1 43146U 18006A   26198.29097181  .00005410  00000+0  15795-3 0  9995
2 43146  97.6643   0.0565 0003163 172.0679 188.0614 15.35774754473332
ASNARO-2                
1 43152U 18007A   26198.28924804  .00004674  00000+0  20528-3 0  9994
2 43152  97.3974 204.7466 0001759  91.0156 269.1282 15.22406320471994
